OBJECT_NAME,OBJECT_ID,EPOCH,MEAN_MOTION,ECCENTRICITY,INCLINATION,RA_OF_ASC_NODE,ARG_OF_PERICENTER,MEAN_ANOMALY,EPHEMERIS_TYPE,CLASSIFICATION_TYPE,NORAD_CAT_ID,ELEMENT_SET_NO,REV_AT_EPOCH,BSTAR,MEAN_MOTION_DOT,MEAN_MOTION_DDOT
SL-8 R/B,1985-006B,2026-06-19T02:40:19.763904,14.37835703,.00189089,74.0460,74.5235,321.3490,143.3002,0,U,15483,999,16860,.60119891E-4,.155E-5,0
SL-12 R/B(2),1985-042D,2026-06-19T11:22:14.602368,14.22006380,.00364331,71.1075,232.6855,324.2806,46.9120,0,U,15772,999,12886,.23267536E-4,.4E-7,0
SL-14 R/B,1985-069B,2026-06-19T14:13:09.444288,14.86517014,.00179656,82.5272,289.1036,210.7658,149.2507,0,U,15945,999,18797,.36721078E-4,.35E-5,0
SL-16 R/B,1985-097B,2026-06-19T12:43:24.223872,14.16610140,.00053889,71.0034,286.1451,106.3126,329.8999,0,U,16182,999,10165,.43710799E-4,.39E-6,0
SL-14 R/B,1986-006B,2026-06-19T11:22:42.652992,14.86947529,.00748526,82.5261,163.9611,295.7544,63.5960,0,U,16496,999,16433,.42890818E-4,.429E-5,0
COSMOS 1743,1986-034A,2026-06-19T12:13:38.901792,15.67125452,.00040592,82.5283,326.2624,261.3044,98.7757,0,U,16719,999,19615,.39051424E-3,.41851E-3,0
SL-14 R/B,1986-046B,2026-06-19T13:51:38.868480,14.85672336,.00216496,82.4818,343.9163,249.9745,109.9141,0,U,16792,999,14153,.31782448E-4,.3E-5,0
SL-14 R/B,1986-055B,2026-06-19T13:41:20.031072,14.85724490,.00188332,82.5202,30.8922,359.8866,64.7456,0,U,16882,999,13449,.31201054E-4,.296E-5,0
AJISAI (EGS),1986-061A,2026-06-19T11:16:39.055872,12.44516781,.00112035,50.0068,140.3753,186.3879,267.8354,0,U,16908,999,48067,-.58034334E-4,-.106E-5,0
SL-14 R/B,1987-024B,2026-06-19T13:46:27.102720,14.86214334,.00167317,82.5279,357.0069,284.6243,75.3118,0,U,17567,999,10326,.28113203E-4,.272E-5,0
COSMOS 1833,1987-027A,2026-06-19T14:03:44.881632,14.13051879,.0022872,70.9185,111.8260,51.1336,309.1821,0,U,17589,999,2471,.20496432E-3,.336E-5,0
SL-16 R/B,1987-027B,2026-06-19T09:42:05.434848,14.17171273,.00065965,71.0032,62.1570,309.8057,50.2486,0,U,17590,999,2975,-.51507817E-4,-.152E-5,0
SL-14 R/B,1987-038B,2026-06-19T13:17:39.532128,14.85446292,.00191108,82.5006,200.8430,183.2899,176.8194,0,U,17912,999,9435,.26660315E-4,.255E-5,0
COSMOS 1844,1987-041A,2026-06-19T08:52:44.932800,14.14567449,.00327806,70.8965,179.7029,232.3780,127.4365,0,U,17973,999,1796,-.36992572E-4,-.12E-5,0
SL-14 R/B,1987-055B,2026-06-19T12:18:41.991264,14.85712411,.00215399,82.4995,253.0367,40.3461,319.9348,0,U,18153,999,8505,.31973677E-4,.303E-5,0
COSMOS 1867,1987-060A,2026-06-19T00:28:02.364384,14.31515893,.00165641,65.0115,22.9272,282.1592,77.7636,0,U,18187,999,3444,.18824143E-4,-.5E-6,0
SL-14 R/B,1988-001B,2026-06-19T12:21:49.341888,14.85610915,.00164388,82.5133,99.5836,261.0859,98.8497,0,U,18749,999,5714,.32199034E-4,.303E-5,0
COSMOS 1933,1988-020A,2026-06-19T11:24:29.165184,15.18726123,.00037924,82.5125,150.1692,177.6779,182.4473,0,U,18958,999,6567,.14396504E-3,.3019E-4,0
SL-3 R/B,1988-032B,2026-06-19T13:06:09.425952,15.20854165,.00239804,97.5258,153.5841,236.1828,123.7124,0,U,19046,999,6758,.14047453E-3,.3052E-4,0
SL-16 R/B,1988-039B,2026-06-19T09:00:55.988928,14.19629924,.00221216,71.0134,213.5307,189.8886,170.1808,0,U,19120,999,97281,.73254232E-4,.107E-5,0
COSMOS 1953,1988-050A,2026-06-19T15:14:08.756448,15.30005862,.00122727,82.5074,55.5662,118.7783,241.4692,0,U,19210,999,5336,.20603574E-3,.6029E-4,0
SL-8 R/B,1988-053B,2026-06-19T13:38:11.173632,14.38968155,.00191688,74.0482,284.6682,79.1186,291.6576,0,U,19257,999,99125,.52354813E-4,.136E-5,0
COSMOS 1975,1988-093A,2026-06-19T13:48:21.263040,15.29351751,.0011557,82.5191,15.2992,163.4813,196.6806,0,U,19573,999,3497,.2169423E-3,.6219E-4,0
SL-14 R/B,1988-093B,2026-06-19T08:30:42.676704,14.85743279,.00220131,82.5313,306.6096,63.7576,326.1995,0,U,19574,999,1611,.36587448E-4,.344E-5,0
SL-16 R/B,1988-102B,2026-06-19T14:50:57.793344,14.16164001,.00156513,71.0000,297.0224,221.9078,138.0848,0,U,19650,999,94132,.11721313E-4,-.25E-6,0
INTERCOSMOS 24,1989-080A,2026-06-19T09:34:48.315648,12.59665216,.11883445,82.6063,38.2059,56.7783,314.1615,0,U,20261,999,67960,.19817796E-3,.702E-5,0
SL-14 R/B,1989-080C,2026-06-19T13:29:35.754432,12.50571758,.12286481,82.5935,107.7820,311.9660,38.2869,0,U,20262,999,67288,.62504842E-4,.209E-5,0
DELTA 1 R/B,1989-089B,2026-06-19T11:53:21.951744,14.50732474,.00694443,97.0636,1.6843,159.7317,200.6662,0,U,20323,999,91049,.59841829E-4,.208E-5,0
ARIANE 40 R/B,1990-005H,2026-06-19T09:46:30.279360,14.39928428,.00088634,98.2958,227.9544,256.7131,103.3069,0,U,20443,999,90744,.70196237E-4,.179E-5,0
DELTA 2 R/B(1),1990-008B,2026-06-19T13:04:23.783808,15.69141192,.00647908,35.5985,219.8829,137.0708,223.5112,0,U,20453,999,94207,.54891803E-3,.75176E-3,0
