SL-8 R/B                
1 15483U 85006B   26170.11133986  .00000155  00000+0  60120-4 0  9991
2 15483  74.0460  74.5235 0018908 321.3490 143.3002 14.37835703168603
SL-12 R/B(2)            
1 15772U 85042D   26170.47378012  .00000004  00000+0  23268-4 0  9997
2 15772  71.1075 232.6855 0036433 324.2806  46.9120 14.22006380128863
SL-14 R/B               
1 15945U 85069B   26170.59247042  .00000350  00000+0  36721-4 0  9991
2 15945  82.5272 289.1036 0017965 210.7658 149.2507 14.86517014187975
SL-16 R/B               
1 16182U 85097B   26170.53014148  .00000039  00000+0  43711-4 0  9990
2 16182  71.0034 286.1451 0005388 106.3126 329.8999 14.16610140101651
SL-14 R/B               
1 16496U 86006B   26170.47410478  .00000429  00000+0  42891-4 0  9999
2 16496  82.5261 163.9611 0074852 295.7544  63.5960 14.86947529164332
COSMOS 1743             
1 16719U 86034A   26170.50947803  .00041851  00000+0  39051-3 0  9996
2 16719  82.5283 326.2624 0004059 261.3044  98.7757 15.67125452196150
SL-14 R/B               
1 16792U 86046B   26170.57753320  .00000300  00000+0  31782-4 0  9994
2 16792  82.4818 343.9163 0021649 249.9745 109.9141 14.85672336141533
SL-14 R/B               
1 16882U 86055B   26170.57037073  .00000296  00000+0  31201-4 0  9994
2 16882  82.5202  30.8922 0018833 359.8866  64.7456 14.85724490134495
AJISAI (EGS)            
1 16908U 86061A   26170.46989648 -.00000106  00000+0 -58034-4 0  9997
2 16908  50.0068 140.3753 0011203 186.3879 267.8354 12.44516781480676
SL-14 R/B               
1 17567U 87024B   26170.57392480  .00000272  00000+0  28113-4 0  9990
2 17567  82.5279 357.0069 0016731 284.6243  75.3118 14.86214334103261
COSMOS 1833             
1 17589U 87027A   26170.58593613  .00000336  00000+0  20496-3 0  9995
2 17589  70.9185 111.8260 0022872  51.1336 309.1821 14.13051879 24718
SL-16 R/B               
1 17590U 87027B   26170.40422957 -.00000152  00000+0 -51508-4 0  9997
2 17590  71.0032  62.1570 0006596 309.8057  50.2486 14.17171273 29758
SL-14 R/B               
1 17912U 87038B   26170.55392977  .00000255  00000+0  26660-4 0  9994
2 17912  82.5006 200.8430 0019110 183.2899 176.8194 14.85446292 94354
COSMOS 1844             
1 17973U 87041A   26170.36996450 -.00000120  00000+0 -36993-4 0  9993
2 17973  70.8965 179.7029 0032780 232.3780 127.4365 14.14567449 17960
SL-14 R/B               
1 18153U 87055B   26170.51298601  .00000303  00000+0  31974-4 0  9994
2 18153  82.4995 253.0367 0021539  40.3461 319.9348 14.85712411 85050
COSMOS 1867             
1 18187U 87060A   26170.01947181 -.00000050  00000+0  18824-4 0  9995
2 18187  65.0115  22.9272 0016564 282.1592  77.7636 14.31515893 34441
SL-14 R/B               
1 18749U 88001B   26170.51515442  .00000303  00000+0  32199-4 0  9992
2 18749  82.5133  99.5836 0016438 261.0859  98.8497 14.85610915 57148
COSMOS 1933             
1 18958U 88020A   26170.47533756  .00003019  00000+0  14397-3 0  9994
2 18958  82.5125 150.1692 0003792 177.6779 182.4473 15.18726123 65674
SL-3 R/B                
1 19046U 88032B   26170.54594243  .00003052  00000+0  14047-3 0  9991
2 19046  97.5258 153.5841 0023980 236.1828 123.7124 15.20854165 67580
SL-16 R/B               
1 19120U 88039B   26170.37564802  .00000107  00000+0  73254-4 0  9994
2 19120  71.0134 213.5307 0022121 189.8886 170.1808 14.19629924972817
COSMOS 1953             
1 19210U 88050A   26170.63482357  .00006029  00000+0  20604-3 0  9999
2 19210  82.5074  55.5662 0012272 118.7783 241.4692 15.30005862 53364
SL-8 R/B                
1 19257U 88053B   26170.56818488  .00000136  00000+0  52355-4 0  9995
2 19257  74.0482 284.6682 0019168  79.1186 291.6576 14.38968155991256
COSMOS 1975             
1 19573U 88093A   26170.57524610  .00006219  00000+0  21694-3 0  9991
2 19573  82.5191  15.2992 0011557 163.4813 196.6806 15.29351751 34974
SL-14 R/B               
1 19574U 88093B   26170.35466061  .00000344  00000+0  36587-4 0  9994
2 19574  82.5313 306.6096 0022013  63.7576 326.1995 14.85743279 16116
SL-16 R/B               
1 19650U 88102B   26170.61872446 -.00000025  00000+0  11721-4 0  9997
2 19650  71.0000 297.0224 0015651 221.9078 138.0848 14.16164001941329
INTERCOSMOS 24          
1 20261U 89080A   26170.39917032  .00000702  00000+0  19818-3 0  9994
2 20261  82.6063  38.2059 1188344  56.7783 314.1615 12.59665216679602
SL-14 R/B               
1 20262U 89080C   26170.56221938  .00000209  00000+0  62505-4 0  9991
2 20262  82.5935 107.7820 1228648 311.9660  38.2869 12.50571758672886
DELTA 1 R/B             
1 20323U 89089B   26170.49539296  .00000208  00000+0  59842-4 0  9998
2 20323  97.0636   1.6843 0069444 159.7317 200.6662 14.50732474910497
ARIANE 40 R/B           
1 20443U 90005H   26170.40729490  .00000179  00000+0  70196-4 0  9991
2 20443  98.2958 227.9544 0008863 256.7131 103.3069 14.39928428907445
DELTA 2 R/B(1)          
1 20453U 90008B   26170.54471972  .00075176  00000+0  54892-3 0  9992
2 20453  35.5985 219.8829 0064790 137.0708 223.5112 15.69141192942079
